FORTE                   
1 24920U 97047A   26068.55336280  .00000288  00000+0  13929-3 0  9992
2 24920  69.9516 239.0563 0019638  49.6396 310.6437 14.27898608484460
IDEFIX & ARIANE 42P R/B 
1 27422U 02021B   26068.42594386  .00000374  00000+0  15845-3 0  9994
2 27422  98.5868   7.0354 0011555 183.0056 177.1059 14.31025981243982
