[{"OBJECT_NAME":"FORTE","OBJECT_ID":"1997-047A","EPOCH":"2026-03-09T13:16:50.545920","MEAN_MOTION":14.27898608,"ECCENTRICITY":0.0019638,"INCLINATION":69.9516,"RA_OF_ASC_NODE":239.0563,"ARG_OF_PERICENTER":49.6396,"MEAN_ANOMALY":310.6437,"EPHEMERIS_TYPE":0,"CLASSIFICATION_TYPE":"U","NORAD_CAT_ID":24920,"ELEMENT_SET_NO":999,"REV_AT_EPOCH":48446,"BSTAR":0.00013929,"MEAN_MOTION_DOT":2.88e-6,"MEAN_MOTION_DDOT":0},{"OBJECT_NAME":"IDEFIX & ARIANE 42P R\/B","OBJECT_ID":"2002-021B","EPOCH":"2026-03-09T10:13:21.549504","MEAN_MOTION":14.31025981,"ECCENTRICITY":0.0011555,"INCLINATION":98.5868,"RA_OF_ASC_NODE":7.0354,"ARG_OF_PERICENTER":183.0056,"MEAN_ANOMALY":177.1059,"EPHEMERIS_TYPE":0,"CLASSIFICATION_TYPE":"U","NORAD_CAT_ID":27422,"ELEMENT_SET_NO":999,"REV_AT_EPOCH":24398,"BSTAR":0.00015845,"MEAN_MOTION_DOT":3.74e-6,"MEAN_MOTION_DDOT":0}]
